{"fetched_at":"2026-03-30T06:02:59Z","count":15439,"tles":[{"name":"STARLINK-36462","line1":"1 67321U 26002S   26087.76705472  .00031130  00000+0  11351-2 0  9990","line2":"2 67321  43.0002 217.7757 0001777 265.6878  94.3770 15.27604790 13993","category":"Starlink"}]}