{
  "norad_id": 67321,
  "name": "STARLINK-36462",
  "history": [
    {
      "epoch": "2026-03-28T18:24:33.527808",
      "apogee_km": 484.19456672191336,
      "perigee_km": 481.7551670087678,
      "latitude_deg": 9.492143269579023,
      "longitude_deg": -94.26274688006379,
      "semi_major_axis_km": 6861.11186686534,
      "eccentricity": 0.00017777,
      "inclination_deg": 43.0002,
      "raan_deg": 217.7757,
      "arg_perigee_deg": 265.6878,
      "mean_anomaly_deg": 94.377,
      "mean_motion_rev_day": 15.2760479
    }
  ]
}